[
  {
    "COMMENT": "GENERATED VIA SPACETRACK.ORG API",
    "ORIGINATOR": "18 SPCS",
    "NORAD_CAT_ID": "43682",
    "OBJECT_NAME": "H-2A R/B",
    "OBJECT_TYPE": "ROCKET BODY",
    "CLASSIFICATION_TYPE": "U",
    "INTLDES": "18084L",
    "EPOCH": "2023-05-31 13:55:17",
    "EPOCH_MICROSECONDS": "290272",
    "MEAN_MOTION": "15.08364821",
    "ECCENTRICITY": "0.0050813",
    "INCLINATION": "98.895",
    "RA_OF_ASC_NODE": "173.0961",
    "ARG_OF_PERICENTER": "196.8812",
    "MEAN_ANOMALY": "163.0724",
    "EPHEMERIS_TYPE": "0",
    "ELEMENT_SET_NO": "999",
    "REV_AT_EPOCH": "25171",
    "BSTAR": "0.00027571",
    "MEAN_MOTION_DOT": "0.00004327",
    "MEAN_MOTION_DDOT": "0",
    "FILE": "3921767",
    "TLE_LINE0": "0 H-2A R/B",
    "TLE_LINE1": "1 43682U 18084L   23151.58006123  .00004327  00000-0  27571-3 0  9992",
    "TLE_LINE2": "2 43682  98.8950 173.0961 0050813 196.8812 163.0724 15.08364821251710",
    "OBJECT_ID": "2018-084L",
    "OBJECT_NUMBER": "43682",
    "SEMIMAJOR_AXIS": "6919.333",
    "PERIOD": "95.468",
    "APOGEE": "576.357",
    "PERIGEE": "506.039",
    "DECAYED": "0"
  },
  {
    "COMMENT": "GENERATED VIA SPACETRACK.ORG API",
    "ORIGINATOR": "18 SPCS",
    "NORAD_CAT_ID": "43682",
    "OBJECT_NAME": "H-2A R/B",
    "OBJECT_TYPE": "ROCKET BODY",
    "CLASSIFICATION_TYPE": "U",
    "INTLDES": "18084L",
    "EPOCH": "2023-05-31 15:30:48",
    "EPOCH_MICROSECONDS": "861504",
    "MEAN_MOTION": "15.08365363",
    "ECCENTRICITY": "0.005082",
    "INCLINATION": "98.895",
    "RA_OF_ASC_NODE": "173.1728",
    "ARG_OF_PERICENTER": "196.6612",
    "MEAN_ANOMALY": "163.2945",
    "EPHEMERIS_TYPE": "0",
    "ELEMENT_SET_NO": "999",
    "REV_AT_EPOCH": "25172",
    "BSTAR": "0.00027584",
    "MEAN_MOTION_DOT": "0.00004329",
    "MEAN_MOTION_DDOT": "0",
    "FILE": "3921861",
    "TLE_LINE0": "0 H-2A R/B",
    "TLE_LINE1": "1 43682U 18084L   23151.64639886  .00004329  00000-0  27584-3 0  9993",
    "TLE_LINE2": "2 43682  98.8950 173.1728 0050820 196.6612 163.2945 15.08365363251726",
    "OBJECT_ID": "2018-084L",
    "OBJECT_NUMBER": "43682",
    "SEMIMAJOR_AXIS": "6919.332",
    "PERIOD": "95.468",
    "APOGEE": "576.361",
    "PERIGEE": "506.033",
    "DECAYED": "0"
  },
  {
    "COMMENT": "GENERATED VIA SPACETRACK.ORG API",
    "ORIGINATOR": "18 SPCS",
    "NORAD_CAT_ID": "43682",
    "OBJECT_NAME": "H-2A R/B",
    "OBJECT_TYPE": "ROCKET BODY",
    "CLASSIFICATION_TYPE": "U",
    "INTLDES": "18084L",
    "EPOCH": "2023-05-31 20:17:23",
    "EPOCH_MICROSECONDS": "567424",
    "MEAN_MOTION": "15.0836682",
    "ECCENTRICITY": "0.0050829",
    "INCLINATION": "98.8949",
    "RA_OF_ASC_NODE": "173.4031",
    "ARG_OF_PERICENTER": "196.0045",
    "MEAN_ANOMALY": "163.9576",
    "EPHEMERIS_TYPE": "0",
    "ELEMENT_SET_NO": "999",
    "REV_AT_EPOCH": "25175",
    "BSTAR": "0.00027095",
    "MEAN_MOTION_DOT": "0.00004251",
    "MEAN_MOTION_DDOT": "0",
    "FILE": "3922037",
    "TLE_LINE0": "0 H-2A R/B",
    "TLE_LINE1": "1 43682U 18084L   23151.84541166  .00004251  00000-0  27095-3 0  9999",
    "TLE_LINE2": "2 43682  98.8949 173.4031 0050829 196.0045 163.9576 15.08366820251756",
    "OBJECT_ID": "2018-084L",
    "OBJECT_NUMBER": "43682",
    "SEMIMAJOR_AXIS": "6919.327",
    "PERIOD": "95.467",
    "APOGEE": "576.362",
    "PERIGEE": "506.022",
    "DECAYED": "0"
  },
  {
    "COMMENT": "GENERATED VIA SPACETRACK.ORG API",
    "ORIGINATOR": "18 SPCS",
    "NORAD_CAT_ID": "43682",
    "OBJECT_NAME": "H-2A R/B",
    "OBJECT_TYPE": "ROCKET BODY",
    "CLASSIFICATION_TYPE": "U",
    "INTLDES": "18084L",
    "EPOCH": "2023-06-01 07:26:04",
    "EPOCH_MICROSECONDS": "450272",
    "MEAN_MOTION": "15.08371786",
    "ECCENTRICITY": "0.0050884",
    "INCLINATION": "98.8947",
    "RA_OF_ASC_NODE": "173.9403",
    "ARG_OF_PERICENTER": "194.4805",
    "MEAN_ANOMALY": "165.4964",
    "EPHEMERIS_TYPE": "0",
    "ELEMENT_SET_NO": "999",
    "REV_AT_EPOCH": "25182",
    "BSTAR": "0.00029077",
    "MEAN_MOTION_DOT": "0.00004569",
    "MEAN_MOTION_DDOT": "0",
    "FILE": "3922365",
    "TLE_LINE0": "0 H-2A R/B",
    "TLE_LINE1": "1 43682U 18084L   23152.30977373  .00004569  00000-0  29077-3 0  9998",
    "TLE_LINE2": "2 43682  98.8947 173.9403 0050884 194.4805 165.4964 15.08371786251822",
    "OBJECT_ID": "2018-084L",
    "OBJECT_NUMBER": "43682",
    "SEMIMAJOR_AXIS": "6919.312",
    "PERIOD": "95.467",
    "APOGEE": "576.385",
    "PERIGEE": "505.969",
    "DECAYED": "0"
  },
  {
    "COMMENT": "GENERATED VIA SPACETRACK.ORG API",
    "ORIGINATOR": "18 SPCS",
    "NORAD_CAT_ID": "43682",
    "OBJECT_NAME": "H-2A R/B",
    "OBJECT_TYPE": "ROCKET BODY",
    "CLASSIFICATION_TYPE": "U",
    "INTLDES": "18084L",
    "EPOCH": "2023-06-01 20:10:16",
    "EPOCH_MICROSECONDS": "746240",
    "MEAN_MOTION": "15.08376865",
    "ECCENTRICITY": "0.0050915",
    "INCLINATION": "98.8944",
    "RA_OF_ASC_NODE": "174.5545",
    "ARG_OF_PERICENTER": "192.7294",
    "MEAN_ANOMALY": "167.2648",
    "EPHEMERIS_TYPE": "0",
    "ELEMENT_SET_NO": "999",
    "REV_AT_EPOCH": "25190",
    "BSTAR": "0.00029693",
    "MEAN_MOTION_DOT": "0.00004669",
    "MEAN_MOTION_DDOT": "0",
    "FILE": "3922718",
    "TLE_LINE0": "0 H-2A R/B",
    "TLE_LINE1": "1 43682U 18084L   23152.84047160  .00004669  00000-0  29693-3 0  9994",
    "TLE_LINE2": "2 43682  98.8944 174.5545 0050915 192.7294 167.2648 15.08376865251902",
    "OBJECT_ID": "2018-084L",
    "OBJECT_NUMBER": "43682",
    "SEMIMAJOR_AXIS": "6919.296",
    "PERIOD": "95.467",
    "APOGEE": "576.391",
    "PERIGEE": "505.932",
    "DECAYED": "0"
  },
  {
    "COMMENT": "GENERATED VIA SPACETRACK.ORG API",
    "ORIGINATOR": "18 SPCS",
    "NORAD_CAT_ID": "43682",
    "OBJECT_NAME": "H-2A R/B",
    "OBJECT_TYPE": "ROCKET BODY",
    "CLASSIFICATION_TYPE": "U",
    "INTLDES": "18084L",
    "EPOCH": "2023-06-02 00:56:51",
    "EPOCH_MICROSECONDS": "314784",
    "MEAN_MOTION": "15.08378806",
    "ECCENTRICITY": "0.0050932",
    "INCLINATION": "98.8943",
    "RA_OF_ASC_NODE": "174.7848",
    "ARG_OF_PERICENTER": "192.083",
    "MEAN_ANOMALY": "167.9177",
    "EPHEMERIS_TYPE": "0",
    "ELEMENT_SET_NO": "999",
    "REV_AT_EPOCH": "25193",
    "BSTAR": "0.0002965",
    "MEAN_MOTION_DOT": "0.00004663",
    "MEAN_MOTION_DDOT": "0",
    "FILE": "3922882",
    "TLE_LINE0": "0 H-2A R/B",
    "TLE_LINE1": "1 43682U 18084L   23153.03948281  .00004663  00000-0  29650-3 0  9997",
    "TLE_LINE2": "2 43682  98.8943 174.7848 0050932 192.0830 167.9177 15.08378806251931",
    "OBJECT_ID": "2018-084L",
    "OBJECT_NUMBER": "43682",
    "SEMIMAJOR_AXIS": "6919.290",
    "PERIOD": "95.467",
    "APOGEE": "576.397",
    "PERIGEE": "505.914",
    "DECAYED": "0"
  },
  {
    "COMMENT": "GENERATED VIA SPACETRACK.ORG API",
    "ORIGINATOR": "18 SPCS",
    "NORAD_CAT_ID": "43682",
    "OBJECT_NAME": "H-2A R/B",
    "OBJECT_TYPE": "ROCKET BODY",
    "CLASSIFICATION_TYPE": "U",
    "INTLDES": "18084L",
    "EPOCH": "2023-06-02 13:41:03",
    "EPOCH_MICROSECONDS": "407712",
    "MEAN_MOTION": "15.08383596",
    "ECCENTRICITY": "0.005099",
    "INCLINATION": "98.8941",
    "RA_OF_ASC_NODE": "175.3989",
    "ARG_OF_PERICENTER": "190.3435",
    "MEAN_ANOMALY": "169.6745",
    "EPHEMERIS_TYPE": "0",
    "ELEMENT_SET_NO": "999",
    "REV_AT_EPOCH": "25201",
    "BSTAR": "0.0002908",
    "MEAN_MOTION_DOT": "0.00004572",
    "MEAN_MOTION_DDOT": "0",
    "FILE": "3923342",
    "TLE_LINE0": "0 H-2A R/B",
    "TLE_LINE1": "1 43682U 18084L   23153.57017833  .00004572  00000-0  29080-3 0  9992",
    "TLE_LINE2": "2 43682  98.8941 175.3989 0050990 190.3435 169.6745 15.08383596252010",
    "OBJECT_ID": "2018-084L",
    "OBJECT_NUMBER": "43682",
    "SEMIMAJOR_AXIS": "6919.276",
    "PERIOD": "95.466",
    "APOGEE": "576.422",
    "PERIGEE": "505.859",
    "DECAYED": "0"
  },
  {
    "COMMENT": "GENERATED VIA SPACETRACK.ORG API",
    "ORIGINATOR": "18 SPCS",
    "NORAD_CAT_ID": "43682",
    "OBJECT_NAME": "H-2A R/B",
    "OBJECT_TYPE": "ROCKET BODY",
    "CLASSIFICATION_TYPE": "U",
    "INTLDES": "18084L",
    "EPOCH": "2023-06-02 15:16:34",
    "EPOCH_MICROSECONDS": "910688",
    "MEAN_MOTION": "15.08384093",
    "ECCENTRICITY": "0.0050999",
    "INCLINATION": "98.8941",
    "RA_OF_ASC_NODE": "175.4756",
    "ARG_OF_PERICENTER": "190.1272",
    "MEAN_ANOMALY": "169.893",
    "EPHEMERIS_TYPE": "0",
    "ELEMENT_SET_NO": "999",
    "REV_AT_EPOCH": "25202",
    "BSTAR": "0.0002879",
    "MEAN_MOTION_DOT": "0.00004526",
    "MEAN_MOTION_DDOT": "0",
    "FILE": "3923570",
    "TLE_LINE0": "0 H-2A R/B",
    "TLE_LINE1": "1 43682U 18084L   23153.63651517  .00004526  00000-0  28790-3 0  9998",
    "TLE_LINE2": "2 43682  98.8941 175.4756 0050999 190.1272 169.8930 15.08384093252021",
    "OBJECT_ID": "2018-084L",
    "OBJECT_NUMBER": "43682",
    "SEMIMAJOR_AXIS": "6919.274",
    "PERIOD": "95.466",
    "APOGEE": "576.427",
    "PERIGEE": "505.852",
    "DECAYED": "0"
  }
]